NORAD_CAT_ID,OBJECT_NAME,OBJECT_TYPE,EPOCH,MEAN_MOTION,ECCENTRICITY,INCLINATION,RA_OF_ASC_NODE,ARG_OF_PERICENTER,MEAN_ANOMALY,BSTAR,MEAN_MOTION_DOT,MEAN_MOTION_DDOT,TLE_LINE0,TLE_LINE1,TLE_LINE2,SEMIMAJOR_AXIS,PERIOD,APOGEE,PERIGEE,DECAYED
56814.0,STARLINK-6059,PAYLOAD,2023-12-22 21:30:09,14.98330237,0.0002393,69.9997,221.0618,251.0411,109.0489,-2.5781e-05,-4.01e-06,0.0,0 STARLINK-6059,1 56814U 23078AZ  23356.89594508 -.00000401  00000-0 -25781-4 0  9995,2 56814  69.9997 221.0618 0002393 251.0411 109.0489 14.98330237 31685,6950.192,96.107,573.72,570.394,0.0
56814.0,STARLINK-6059,PAYLOAD,2023-12-23 00:42:25,14.98329824,0.0002409,69.9996,220.7249,253.9419,106.1475,-3.1023e-05,-4.63e-06,0.0,0 STARLINK-6059,1 56814U 23078AZ  23357.02946560 -.00000463  00000-0 -31023-4 0  9994,2 56814  69.9996 220.7249 0002409 253.9419 106.1475 14.98329824 31961,6950.193,96.107,573.733,570.384,0.0
56814.0,STARLINK-6059,PAYLOAD,2023-12-23 15:07:38,14.98328375,0.0002467,69.9993,219.2096,259.675,100.4131,2.4162e-05,1.95e-06,0.0,0 STARLINK-6059,1 56814U 23078AZ  23357.63030525  .00000195  00000-0  24162-4 0  9992,2 56814  69.9993 219.2096 0002467 259.6750 100.4131 14.98328375 31793,6950.198,96.107,573.778,570.348,0.0
56814.0,STARLINK-6059,PAYLOAD,2023-12-23 21:32:10,14.983291,0.000247,69.9994,218.536,258.7411,101.347,3.0099e-05,2.66e-06,0.0,0 STARLINK-6059,1 56814U 23078AZ  23357.89734464  .00000266  00000-0  30099-4 0  9998,2 56814  69.9994 218.5360 0002470 258.7411 101.3470 14.98329100 31836,6950.196,96.107,573.777,570.344,0.0
56814.0,STARLINK-6059,PAYLOAD,2023-12-24 00:44:26,14.98329267,0.0002477,69.9993,218.1993,259.5001,100.5879,3.018e-05,2.67e-06,0.0,0 STARLINK-6059,1 56814U 23078AZ  23358.03086461  .00000267  00000-0  30180-4 0  9994,2 56814  69.9993 218.1993 0002477 259.5001 100.5879 14.98329267 32114,6950.195,96.107,573.782,570.339,0.0
56814.0,STARLINK-6059,PAYLOAD,2023-12-24 13:33:31,14.98330692,0.0002586,69.9992,216.8526,261.0999,98.9867,5.2362e-06,-3e-07,0.0,0 STARLINK-6059,1 56814U 23078AZ  23358.56494467 -.00000030  00000-0  52362-5 0  9997,2 56814  69.9992 216.8526 0002586 261.0999  98.9867 14.98330692 31935,6950.191,96.107,573.853,570.258,0.0
56814.0,STARLINK-6059,PAYLOAD,2023-12-24 21:34:11,14.9833367,0.0002568,69.9994,216.0125,258.5073,101.5797,1.8429e-05,1.27e-06,0.0,0 STARLINK-6059,1 56814U 23078AZ  23358.89874170  .00000127  00000-0  18429-4 0  9997,2 56814  69.9994 216.0125 0002568 258.5073 101.5797 14.98333670 31985,6950.182,96.107,573.831,570.262,0.0
56814.0,STARLINK-6059,PAYLOAD,2023-12-25 00:46:27,14.98333986,0.0002583,69.9995,215.6757,261.6873,98.3993,2.8147e-05,2.43e-06,0.0,0 STARLINK-6059,1 56814U 23078AZ  23359.03226096  .00000243  00000-0  28147-4 0  9999,2 56814  69.9995 215.6757 0002583 261.6873  98.3993 14.98333986 32265,6950.181,96.107,573.841,570.25,0.0
56814.0,STARLINK-6059,PAYLOAD,2023-12-25 21:36:12,14.98327173,0.0002419,69.9995,213.4878,262.3745,97.7139,9.3512e-05,1.023e-05,0.0,0 STARLINK-6059,1 56814U 23078AZ  23359.90014211  .00001023  00000-0  93512-4 0  9994,2 56814  69.9995 213.4878 0002419 262.3745  97.7139 14.98327173 32131,6950.202,96.107,573.748,570.385,0.0
56814.0,STARLINK-6059,PAYLOAD,2023-12-26 00:48:29,14.98277134,0.0002248,69.9994,213.1508,268.4805,91.6097,0.00096122,0.00011379,0.0,0 STARLINK-6059,1 56814U 23078AZ  23360.03367447  .00011379  00000-0  96122-3 0  9996,2 56814  69.9994 213.1508 0002248 268.4805  91.6097 14.98277134 32419,6950.356,96.11,573.784,570.659,0.0
56814.0,STARLINK-6059,PAYLOAD,2023-12-26 20:02:05,14.98332027,0.0002461,69.9996,211.1306,261.754,98.334,-8.3261e-05,-1.086e-05,0.0,0 STARLINK-6059,1 56814U 23078AZ  23360.83478277 -.00001086  00000-0 -83261-4 0  9995,2 56814  69.9996 211.1306 0002461 261.7540  98.3340 14.98332027 32535,6950.187,96.107,573.762,570.341,0.0
56814.0,STARLINK-6059,PAYLOAD,2023-12-26 21:38:13,14.98298455,0.0002307,69.9996,210.9624,265.6312,94.4583,0.00047859,5.617e-05,0.0,0 STARLINK-6059,1 56814U 23078AZ  23360.90155040  .00005617  00000-0  47859-3 0  9997,2 56814  69.9996 210.9624 0002307 265.6312  94.4583 14.98298455 32288,6950.29,96.109,573.759,570.552,0.0
56814.0,STARLINK-6059,PAYLOAD,2023-12-27 13:39:33,14.98330286,0.0002511,69.9995,209.2789,265.3412,94.746,-1.3002e-05,-2.48e-06,0.0,0 STARLINK-6059,1 56814U 23078AZ  23361.56914176 -.00000248  00000-0 -13002-4 0  9994,2 56814  69.9995 209.2789 0002511 265.3412  94.7460 14.98330286 32382,6950.192,96.107,573.802,570.312,0.0
56814.0,STARLINK-6059,PAYLOAD,2023-12-27 20:04:06,14.98329612,0.0002537,69.9994,208.6055,264.4137,95.6733,-2.1388e-05,-3.48e-06,0.0,0 STARLINK-6059,1 56814U 23078AZ  23361.83618221 -.00000348  00000-0 -21388-4 0  9993,2 56814  69.9994 208.6055 0002537 264.4137  95.6733 14.98329612 32689,6950.194,96.107,573.822,570.296,0.0
56814.0,STARLINK-6059,PAYLOAD,2023-12-27 21:40:14,14.98330426,0.0002522,69.9994,208.4372,264.4707,95.6164,-1.089e-05,-2.23e-06,0.0,0 STARLINK-6059,1 56814U 23078AZ  23361.90294133 -.00000223  00000-0 -10890-4 0  9991,2 56814  69.9994 208.4372 0002522 264.4707  95.6164 14.98330426 32432,6950.192,96.107,573.809,570.304,0.0
56814.0,STARLINK-6059,PAYLOAD,2023-12-28 00:52:30,14.98329753,0.0002531,69.9994,208.1007,266.3016,93.7854,-1.8003e-05,-3.08e-06,0.0,0 STARLINK-6059,1 56814U 23078AZ  23362.03646200 -.00000308  00000-0 -18003-4 0  9990,2 56814  69.9994 208.1007 0002531 266.3016  93.7854 14.98329753 32456,6950.194,96.107,573.818,570.3,0.0
56814.0,STARLINK-6059,PAYLOAD,2023-12-28 20:06:07,14.98329022,0.0002636,69.999,206.0804,268.2528,91.8329,2.1489e-05,1.63e-06,0.0,0 STARLINK-6059,1 56814U 23078AZ  23362.83758125  .00000163  00000-0  21489-4 0  9997,2 56814  69.9990 206.0804 0002636 268.2528  91.8329 14.98329022 32577,6950.196,96.107,573.893,570.229,0.0
56814.0,STARLINK-6059,PAYLOAD,2023-12-28 23:18:23,14.98329873,0.0002629,69.999,205.7437,268.307,91.7788,3.0192e-05,2.67e-06,0.0,0 STARLINK-6059,1 56814U 23078AZ  23362.97110044  .00000267  00000-0  30192-4 0  9990,2 56814  69.9990 205.7437 0002629 268.3070  91.7788 14.98329873 32853,6950.193,96.107,573.885,570.231,0.0
56814.0,STARLINK-6059,PAYLOAD,2023-12-29 13:43:35,14.98330272,0.0002642,69.9989,204.2287,269.8677,90.218,2.0524e-06,-6.8e-07,0.0,0 STARLINK-6059,1 56814U 23078AZ  23363.57194095 -.00000068  00000-0  20524-5 0  9994,2 56814  69.9989 204.2287 0002642 269.8677  90.2180 14.98330272 32688,6950.192,96.107,573.893,570.221,0.0
56814.0,STARLINK-6059,PAYLOAD,2023-12-29 21:44:15,14.98330867,0.0002572,69.9993,203.3876,267.7809,92.3055,1.0634e-05,3.4e-07,0.0,0 STARLINK-6059,1 56814U 23078AZ  23363.90574003  .00000034  00000-0  10634-4 0  9994,2 56814  69.9993 203.3876 0002572 267.7809  92.3055 14.98330867 32733,6950.19,96.107,573.843,570.268,0.0
56814.0,STARLINK-6059,PAYLOAD,2023-12-29 23:20:23,14.98330726,0.0002597,69.9993,203.2194,267.5344,92.5518,2.8048e-05,2.42e-06,0.0,0 STARLINK-6059,1 56814U 23078AZ  23363.97249957  .00000242  00000-0  28048-4 0  9997,2 56814  69.9993 203.2194 0002597 267.5344  92.5518 14.98330726 33005,6950.191,96.107,573.861,570.251,0.0
56814.0,STARLINK-6059,PAYLOAD,2023-12-30 13:45:36,14.9832942,0.0002408,69.9999,201.7049,264.1627,95.9258,2.9162e-05,2.55e-06,0.0,0 STARLINK-6059,1 56814U 23078AZ  23364.57333962  .00000255  00000-0  29162-4 0  9996,2 56814  69.9999 201.7049 0002408 264.1627  95.9258 14.98329420 32838,6950.195,96.107,573.733,570.386,0.0
56814.0,STARLINK-6059,PAYLOAD,2023-12-30 18:33:59,14.9835004,0.0002517,69.9996,201.1994,261.4956,98.5918,0.00022878,2.639e-05,0.0,0 STARLINK-6059,1 56814U 23078AZ  23364.77360069  .00002639  00000-0  22878-3 0  9990,2 56814  69.9996 201.1994 0002517 261.4956  98.5918 14.98350040 33121,6950.131,96.106,573.745,570.247,0.0
56814.0,STARLINK-6059,PAYLOAD,2023-12-30 21:46:14,14.98351653,0.0002479,69.9998,200.8629,266.4926,93.5949,0.00023807,2.75e-05,0.0,0 STARLINK-6059,1 56814U 23078AZ  23364.90711789  .00002750  00000-0  23807-3 0  9991,2 56814  69.9998 200.8629 0002479 266.4926  93.5949 14.98351653 32885,6950.126,96.106,573.714,570.268,0.0
56814.0,STARLINK-6059,PAYLOAD,2023-12-31 12:11:27,14.9833992,0.0001595,70.0027,199.3527,236.7824,123.3183,0.00015358,1.741e-05,0.0,0 STARLINK-6059,1 56814U 23078AZ  23365.50796268  .00001741  00000-0  15358-3 0  9994,2 56814  70.0027 199.3527 0001595 236.7824 123.3183 14.98339920 33230,6950.162,96.106,573.136,570.919,0.0
56814.0,STARLINK-6059,PAYLOAD,2023-12-31 20:12:09,14.98329574,0.0002931,69.9995,198.5065,274.7718,85.3107,-3.5666e-05,-5.19e-06,0.0,0 STARLINK-6059,1 56814U 23078AZ  23365.84177327 -.00000519  00000-0 -35666-4 0  9999,2 56814  69.9995 198.5065 0002931 274.7718  85.3107 14.98329574 33280,6950.194,96.107,574.096,570.022,0.0
56814.0,STARLINK-6059,PAYLOAD,2023-12-31 21:48:17,14.98329193,0.0002899,69.9994,198.338,272.9272,87.1555,-4.0372e-05,-5.75e-06,0.0,0 STARLINK-6059,1 56814U 23078AZ  23365.90853339 -.00000575  00000-0 -40372-4 0  9992,2 56814  69.9994 198.3380 0002899 272.9272  87.1555 14.98329193 33032,6950.195,96.107,574.075,570.046,0.0
56814.0,STARLINK-6059,PAYLOAD,2024-01-01 13:49:38,14.98338757,0.0002917,69.9993,196.6549,269.0836,90.9988,-0.00025483,-3.133e-05,0.0,0 STARLINK-6059,1 56814U 23078AZ  24001.57613445 -.00003133  00000-0 -25483-3 0  9993,2 56814  69.9993 196.6549 0002917 269.0836  90.9988 14.98338757 33132,6950.166,96.106,574.058,570.003,0.0
56814.0,STARLINK-6059,PAYLOAD,2024-01-01 20:14:10,14.98337789,0.0002538,70.0005,195.9819,261.5064,98.5807,-0.00020273,-2.511e-05,0.0,0 STARLINK-6059,1 56814U 23078AZ  24001.84317199 -.00002511  00000-0 -20273-3 0  9991,2 56814  70.0005 195.9819 0002538 261.5064  98.5807 14.98337789 33431,6950.169,96.106,573.798,570.27,0.0
56814.0,STARLINK-6059,PAYLOAD,2024-01-01 21:50:18,14.98337452,0.0002741,69.9997,195.8121,269.2125,90.872,-0.00020936,-2.591e-05,0.0,0 STARLINK-6059,1 56814U 23078AZ  24001.90993224 -.00002591  00000-0 -20936-3 0  9991,2 56814  69.9997 195.8121 0002741 269.2125  90.8720 14.98337452 33180,6950.17,96.107,573.94,570.13,0.0
